ONEWEB-0053             
1 45157U 20008AC  23351.57516213 -.00000393  00000+0 -11635-2 0  9990
2 45157  87.8908 217.5468 0001390  73.7947 286.3333 13.10370077188393
ONEWEB-0054             
1 45158U 20008AD  23351.61094161  .00000255  00000+0  69427-3 0  9997
2 45158  87.8912 217.5249 0001473  79.3147 280.8146 13.10375014188513
ONEWEB-0056             
1 45159U 20008AE  23351.66778391 -.00000535  00000+0 -15679-2 0  9999
2 45159  87.8910 217.5086 0001299  78.5258 281.6016 13.10374380189433
ONEWEB-0057             
1 45160U 20008AF  23351.67426729 -.00000362  00000+0 -10737-2 0  9995
2 45160  87.8916 217.5031 0001415  81.7339 278.3948 13.10371040189333
ONEWEB-0058             
1 45161U 20008AG  23351.66141161 -.00000654  00000+0 -19091-2 0  9995
2 45161  87.8906 217.5521 0001399  85.2311 274.8976 13.10373839189663
ONEWEB-0059             
1 45162U 20008AH  23351.12352020 -.00000588  00000+0 -17214-2 0  9996
2 45162  87.8910 217.6294 0001362  84.3248 275.8034 13.10370327188749
ONEWEB-0062             
1 45163U 20008AJ  23351.68564379  .00000058  00000+0  12916-3 0  9995
2 45163  87.8914 217.5048 0001511  78.8999 281.2299 13.10376150189438
ONEWEB-0065             
1 45164U 20008AK  23351.12839221 -.00000657  00000+0 -19181-2 0  9993
2 45164  87.8914 217.6131 0001329  80.3977 279.7301 13.10373571188309
